STARLINK-5686           
1 55450U 23015B   23053.06092216  .00065778  00000+0  50041-3 0  9994
2 55450  42.9996 269.8004 0002347 251.9977 108.0635 15.71386689  3072
STARLINK-5656           
1 55451U 23015C   23053.06071280  .00039004  00000+0  29929-3 0  9997
2 55451  42.9998 269.7977 0002352 236.5598 123.5045 15.71369614  3264
STARLINK-5683           
1 55452U 23015D   23053.06050310  .00084671  00000+0  64159-3 0  9993
2 55452  42.9994 269.7976 0002238 263.8936  96.1677 15.71390828  3269
STARLINK-5684           
1 55453U 23015E   23053.06039649  .00067632  00000+0  51435-3 0  9997
2 55453  43.0000 269.7960 0002233 256.4481 103.6138 15.71384514  3262
STARLINK-5636           
1 55454U 23015F   23053.06008155  .00083513  00000+0  63288-3 0  9991
2 55454  42.9996 269.7942 0001981 251.9971 108.0681 15.71393894  3261
STARLINK-5680           
1 55455U 23015G   23053.06060545  .00068341  00000+0  51969-3 0  9998
2 55455  42.9998 269.7974 0002485 253.7656 106.2938 15.71382651  3263
STARLINK-5058           
1 55456U 23015H   23053.06018839  .00080064  00000+0  60728-3 0  9997
2 55456  42.9998 269.7945 0001982 276.5672  83.4970 15.71388318  3262
STARLINK-5682           
1 55457U 23015J   23053.06029208  .00045650  00000+0  34917-3 0  9993
2 55457  42.9999 269.7953 0002079 239.6378 120.4284 15.71387437  3265
STARLINK-5020           
1 55458U 23015K   23053.05966009  .00037849  00000+0  29038-3 0  9991
2 55458  42.9999 269.7898 0001775 253.3782 106.6891 15.71386304  3260
STARLINK-5669           
1 55459U 23015L   23053.05986992  .00050842  00000+0  38824-3 0  9996
2 55459  42.9999 269.7916 0002145 255.2822 104.7808 15.71388026  3260
STARLINK-5678           
1 55460U 23015M   23053.05976440  .00052717  00000+0  40218-3 0  9998
2 55460  42.9995 269.7918 0002062 256.8581 103.2057 15.71397804  3261
STARLINK-5646           
1 55461U 23015N   23053.05997595  .00077715  00000+0  58961-3 0  9992
2 55461  42.9996 269.7931 0002254 250.9972 109.0651 15.71392539  3264
STARLINK-5673           
1 55462U 23015P   23053.05934819  .00015792  00000+0  12359-3 0  9991
2 55462  42.9996 269.7879 0001974 274.8927  85.1715 15.71364518  3260
STARLINK-5677           
1 55463U 23015Q   23053.05955555  .00043262  00000+0  33112-3 0  9995
2 55463  42.9993 269.7899 0001800 256.8439 103.2228 15.71391953  3260
STARLINK-5676           
1 55464U 23015R   23053.05903017  .00048964  00000+0  37431-3 0  9994
2 55464  42.9992 269.7849 0001962 245.9788 114.0874 15.71375591  3267
STARLINK-5674           
1 55465U 23015S   23053.05924136  .00017915  00000+0  13967-3 0  9990
2 55465  42.9996 269.7869 0002090 271.3269  88.7359 15.71371073  3260
STARLINK-5628           
1 55466U 23015T   23053.05860944  .00085920  00000+0  65094-3 0  9996
2 55466  42.9994 269.7825 0002310 275.8180  84.2424 15.71389365  3264
STARLINK-5679           
1 55467U 23015U   23053.05941318  .00026893  00000+0  20808-3 0  9990
2 55467  43.0002 269.7889 0001934 262.8376  97.2272 15.71330169  3264
STARLINK-5672           
1 55468U 23015V   23053.05892546  .00062706  00000+0  47742-3 0  9998
2 55468  43.0002 269.7845 0002083 263.0334  97.0297 15.71384827  3265
STARLINK-5681           
1 55469U 23015W   23053.05913528  .00054169  00000+0  41338-3 0  9992
2 55469  42.9997 269.7861 0002210 264.6164  95.4451 15.71380717  3263
STARLINK-5708           
1 55470U 23015X   23053.05881472  .00038312  00000+0  29346-3 0  9993
2 55470  43.0000 269.7833 0002000 275.9205  84.1435 15.71419243  3263
STARLINK-5711           
1 55471U 23015Y   23053.05871293  .00084304  00000+0  63872-3 0  9998
2 55471  43.0000 269.7824 0002514 275.1179  84.9402 15.71395126  3261
STARLINK-5705           
1 55472U 23015Z   23053.05829557  .00050152  00000+0  38299-3 0  9994
2 55472  42.9994 269.7802 0001614 266.4833  93.5850 15.71392476  3266
STARLINK-5687           
1 55473U 23015AA  23053.05850344  .00033590  00000+0  25817-3 0  9992
2 55473  43.0002 269.7807 0002473 257.5205 102.5386 15.71389565  3262
STARLINK-5689           
1 55474U 23015AB  23053.63003950  .00101742  00000+0  76959-3 0  9998
2 55474  42.9995 266.3260 0002422 264.7456  95.3136 15.71362214  3354
STARLINK-5650           
1 55475U 23015AC  23053.05839485  .00066096  00000+0  50253-3 0  9996
2 55475  42.9998 269.7798 0002364 262.2989  97.7611 15.71398962  3263
STARLINK-5596           
1 55476U 23015AD  23053.91667824 -.00869664  00000+0 -60378-2 0  9990
2 55476  42.9817 263.2400 0002217 262.2096  97.0889 15.75880949  1307
STARLINK-5685           
1 55477U 23015AE  23053.05805932  .00029046  00000+0  22335-3 0  9992
2 55477  42.9996 269.7767 0001807 275.8763  84.1899 15.71442436  3264
STARLINK-5691           
1 55478U 23015AF  23053.05734594  .00069887  00000+0  53105-3 0  9994
2 55478  43.0004 269.7718 0002211 271.2245  88.8370 15.71393447  3260
STARLINK-5688           
1 55479U 23015AG  23053.05819118  .00071266  00000+0  54154-3 0  9990
2 55479  42.9998 269.7783 0001872 258.2825 101.7833 15.71386433  3260
STARLINK-5690           
1 55480U 23015AH  23053.05745263  .00081893  00000+0  62072-3 0  9996
2 55480  42.9996 269.7734 0002034 273.6814  86.3821 15.71396536  3266
STARLINK-5694           
1 55481U 23015AJ  23053.05776542  .00051104  00000+0  39015-3 0  9994
2 55481  43.0003 269.7750 0002209 270.6219  89.4396 15.71391505  3268
STARLINK-5693           
1 55482U 23015AK  23053.05671818  .00102356  00000+0  77244-3 0  9997
2 55482  42.9991 269.7680 0002012 270.6940  89.3697 15.71415692  3074
STARLINK-5692           
1 55483U 23015AL  23053.05722760  .00017048  00000+0  13299-3 0  9994
2 55483  42.9991 269.7707 0001320 280.5562  79.5158 15.71389526  3266
STARLINK-5696           
1 55484U 23015AM  23053.05692891  .00010341  00000+0  82110-4 0  9994
2 55484  42.9997 269.7685 0002384 281.1731  78.8869 15.71382933  3260
STARLINK-5695           
1 55485U 23015AN  23053.05756013  .00075870  00000+0  57605-3 0  9990
2 55485  43.0000 269.7733 0001894 264.6848  95.3803 15.71383942  3265
STARLINK-5704           
1 55486U 23015AP  23053.05703618  .00076391  00000+0  58004-3 0  9997
2 55486  42.9993 269.7701 0001945 271.1753  88.8892 15.71379900  3269
STARLINK-5701           
1 55487U 23015AQ  23053.05766561  .00073681  00000+0  55980-3 0  9993
2 55487  42.9998 269.7740 0002039 262.2028  97.8609 15.71378189  3263
STARLINK-5706           
1 55488U 23015AR  23053.05640134  .00055734  00000+0  42487-3 0  9998
2 55488  42.9996 269.7652 0001937 281.3346  78.7305 15.71396744  3263
STARLINK-5371           
1 55489U 23015AS  23053.05713707  .00062713  00000+0  47731-3 0  9998
2 55489  42.9997 269.7697 0002318 253.3995 106.6618 15.71392346  3269
STARLINK-5373           
1 55490U 23015AT  23053.05619333  .00070519  00000+0  53598-3 0  9991
2 55490  42.9996 269.7624 0002008 267.6035  92.4603 15.71384826  3078
STARLINK-5364           
1 55491U 23015AU  23053.05434539  .00030105  00000+0  23195-3 0  9992
2 55491  42.9988 269.7383 0001608 272.0408  88.0276 15.71379654  3262
STARLINK-5013           
1 55492U 23015AV  23053.05650781  .00047578  00000+0  36364-3 0  9996
2 55492  42.9995 269.7655 0001972 267.0489  93.0153 15.71390864  3266
STARLINK-5362           
1 55493U 23015AW  23053.66667824  .00019864  00000+0  15459-3 0  9999
2 55493  43.0006 266.0806 0002121 272.7271 304.3576 15.71350629  1304
STARLINK-5344           
1 55494U 23015AX  23053.05609348  .00059338  00000+0  45190-3 0  9995
2 55494  42.9991 269.7627 0002009 278.5862  81.4778 15.71397882  3268
STARLINK-5100           
1 55495U 23015AY  23053.05661211  .00047978  00000+0  36665-3 0  9997
2 55495  43.0001 269.7657 0002018 269.2028  90.8608 15.71390945  3266
STARLINK-5139           
1 55496U 23015AZ  23053.05577177  .00076342  00000+0  57952-3 0  9994
2 55496  42.9996 269.7586 0001544 260.3491  99.7202 15.71386699  3267
STARLINK-5363           
1 55497U 23015BA  23053.05597999  .00042403  00000+0  32458-3 0  9994
2 55497  43.0000 269.7601 0002449 254.0622 105.9976 15.71395806  3263
STARLINK-5365           
1 55498U 23015BB  23053.62772673  .00063128  00000+0  48135-3 0  9998
2 55498  42.9998 266.3073 0002464 269.1488  90.9097 15.71346183  3359
STARLINK-5366           
1 55499U 23015BC  23053.62751374  .00042998  00000+0  32915-3 0  9995
2 55499  42.9998 266.3049 0002320 260.7023  99.3583 15.71389485  4105
STARLINK-5141           
1 55500U 23015BD  23053.05587984  .00077155  00000+0  58579-3 0  9996
2 55500  42.9995 269.7607 0001902 263.5869  96.4782 15.71378623  3263
STARLINK-5367           
1 55501U 23015BE  23053.91667824 -.00012387  00000+0 -91139-4 0  9992
2 55501  43.0004 264.5645 0001934 272.5377 284.6697 15.71356629  1302
FALCON 9 DEB            
1 55502U 23015BF  23053.88495681  .00256170  00000+0  89796-3 0  9992
2 55502  42.9877 262.9962 0015876 292.7082  67.2113 15.87572649  3411
FALCON 9 DEB            
1 55503U 23015BG  23053.87597324  .00270756  34432-4  92197-3 0  9995
2 55503  42.9840 262.9170 0018283 290.0062  69.8843 15.88777868  3416
FALCON 9 DEB            
1 55504U 23015BH  23053.86159326  .00249717  30776-4  80401-3 0  9996
2 55504  42.9806 262.7889 0018943 303.3629  56.5432 15.89870492  3419
FALCON 9 DEB            
1 55505U 23015BJ  23053.86122878  .00250557  30837-4  81738-3 0  9995
2 55505  42.9772 262.7818 0020475 299.6019  60.2815 15.89559504  3412
ELEKTRO-L 4             
1 55506U 23016A   23053.15729282 -.00000111  00000+0  00000+0 0  9994
2 55506   0.5248 285.4933 0037559  49.6389  24.6496  1.00715311   172
BLOCK DM-SL R/B         
1 55507U 23016B   23052.84546456 -.00000159  00000+0  00000+0 0  9992
2 55507   0.3989 275.9378 0096347  29.6326  53.4995  1.03219861   175
AMAZONAS NEXUS          
1 55508U 23017A   23040.08992635 -.00000333  00000+0  00000+0 0  9995
2 55508  25.0543 351.1512 8150843 178.8279 187.3709  1.25612863    24
